H1 CPF 01  gfz 2022 09 04 00  7471 tandemx   
H2 1003001  6202 36605    2022 09 04 00 59 42 2022 09 09 00 00 42   120 1 1  0 0 0
H9
10 0 59827  49662.000000  0   -1223309.612   -468416.480  -6769581.093
10 0 59827  49782.000000  0    -822514.431    354887.000  -6836746.228
10 0 59827  49902.000000  0    -393185.168   1164782.754  -6784698.326
10 0 59827  50022.000000  0      56885.191   1946815.427  -6614330.551
10 0 59827  50142.000000  0     519293.749   2687141.364  -6328571.396
10 0 59827  50262.000000  0     985181.115   3372770.281  -5932341.570
10 0 59827  50382.000000  0    1445397.131   3991791.881  -5432476.987
10 0 59827  50502.000000  0    1890676.381   4533583.746  -4837621.953
10 0 59827  50622.000000  0    2311822.043   4988999.195  -4158091.606
10 0 59827  50742.000000  0    2699893.691   5350529.784  -3405702.463
10 0 59827  50862.000000  0    3046395.423   5612438.495  -2593575.148
10 0 59827  50982.000000  0    3343461.095   5770861.207  -1735910.214
10 0 59827  51102.000000  0    3584031.294   5823872.318   -847740.398
10 0 59827  51222.000000  0    3762016.936   5771512.418     55336.428
10 0 59827  51342.000000  0    3872445.248   5615776.341    957437.461
10 0 59827  51462.000000  0    3911584.737   5360561.185   1842681.975
10 0 59827  51582.000000  0    3877045.832   5011576.856   2695478.384
10 0 59827  51702.000000  0    3767854.271   4576221.316   3500808.864
10 0 59827  51822.000000  0    3584493.761   4063418.908   4244499.850
10 0 59827  51942.000000  0    3328921.281   3483433.629   4913474.872
10 0 59827  52062.000000  0    3004548.233   2847657.911   5495988.012
10 0 59827  52182.000000  0    2616192.589   2168381.240   5981826.173
10 0 59827  52302.000000  0    2170006.068   1458548.101   6362482.977
10 0 59827  52422.000000  0    1673373.402    731507.186   6631302.386
10 0 59827  52542.000000  0    1134786.955       759.191   6783588.089
10 0 59827  52662.000000  0     563700.084   -720292.554   6816681.249
10 0 59827  52782.000000  0     -29639.249  -1418588.383   6730004.978
10 0 59827  52902.000000  0    -634372.624  -2081648.671   6525073.289
10 0 59827  53022.000000  0   -1239229.679  -2697797.042   6205465.248
10 0 59827  53142.000000  0   -1832735.944  -3256366.029   5776765.019
10 0 59827  53262.000000  0   -2403428.743  -3747883.741   5246471.473
10 0 59827  53382.000000  0   -2940080.541  -4164239.469   4623874.922
10 0 59827  53502.000000  0   -3431924.003  -4498823.482   3919899.406
10 0 59827  53622.000000  0   -3868871.374  -4746637.239   3146913.379
10 0 59827  53742.000000  0   -4241723.617  -4904372.524   2318513.228
10 0 59827  53862.000000  0   -4542366.593  -4970457.952   1449282.580
10 0 59827  53982.000000  0   -4763948.670  -4945069.857    554530.418
10 0 59827  54102.000000  0   -4901034.689  -4830107.548   -349985.576
10 0 59827  54222.000000  0   -4949732.717  -4629133.646  -1248345.313
10 0 59827  54342.000000  0   -4907789.315  -4347280.279  -2124756.352
10 0 59827  54462.000000  0   -4774650.428  -3991123.095  -2963839.755
10 0 59827  54582.000000  0   -4551487.364  -3568527.901  -3750904.342
10 0 59827  54702.000000  0   -4241188.587  -3088475.136  -4472204.816
10 0 59827  54822.000000  0   -3848317.799  -2560865.935  -5115179.515
10 0 59827  54942.000000  0   -3379039.595  -1996314.831  -5668662.970
10 0 59827  55062.000000  0   -2841015.739  -1405934.426  -6123070.719
10 0 59827  55182.000000  0   -2243274.426   -801116.156  -6470554.794
10 0 59827  55302.000000  0   -1596054.388   -193311.877  -6705127.724
10 0 59827  55422.000000  0    -910628.569    406179.115  -6822753.582
10 0 59827  55542.000000  0    -199111.171    986414.393  -6821409.552
10 0 59827  55662.000000  0     525751.442   1537003.019  -6701116.679
10 0 59827  55782.000000  0    1250802.427   2048286.309  -6463941.352
10 0 59827  55902.000000  0    1962708.805   2511504.854  -6113964.525
10 0 59827  56022.000000  0    2648202.012   2918947.674  -5657218.974
10 0 59827  56142.000000  0    3294322.054   3264080.886  -5101594.402
10 0 59827  56262.000000  0    3888661.260   3541655.161  -4456713.531
10 0 59827  56382.000000  0    4419605.389   3747790.063  -3733776.664
10 0 59827  56502.000000  0    4876565.973   3880032.030  -2945375.905
10 0 59827  56622.000000  0    5250197.276   3937384.401  -2105281.227
10 0 59827  56742.000000  0    5532593.934   3920309.369  -1228202.508
10 0 59827  56862.000000  0    5717463.941   3830699.809   -329530.221
10 0 59827  56982.000000  0    5800271.956   3671822.155    574938.805
10 0 59827  57102.000000  0    5778349.604   3448230.788   1469286.262
10 0 59827  57222.000000  0    5650967.898   3165655.404   2337761.367
10 0 59827  57342.000000  0    5419370.522   2830865.489   3165066.950
10 0 59827  57462.000000  0    5086766.845   2451514.389   3936637.334
10 0 59827  57582.000000  0    4658283.640   2035966.516   4638900.189
10 0 59827  57702.000000  0    4140880.364   1593113.881   5259515.461
10 0 59827  57822.000000  0    3543229.919   1132186.406   5787593.745
10 0 59827  57942.000000  0    2875562.845    662558.533   6213883.886
10 0 59827  58062.000000  0    2149485.143    193558.753   6530927.210
10 0 59827  58182.000000  0    1377773.268   -265713.926   6733182.104
10 0 59827  58302.000000  0     574146.666   -706565.740   6817117.185
10 0 59827  58422.000000  0    -246978.257  -1120872.340   6781268.574
10 0 59827  58542.000000  0   -1070746.620  -1501227.933   6626263.114
10 0 59827  58662.000000  0   -1882132.967  -1841077.833   6354806.841
10 0 59827  58782.000000  0   -2666213.087  -2134830.719   5971639.999
10 0 59827  58902.000000  0   -3408438.085  -2377951.239   5483462.235
10 0 59827  59022.000000  0   -4094909.463  -2567032.467   4898822.446
10 0 59827  59142.000000  0   -4712644.591  -2699844.365   4227973.229
10 0 59827  59262.000000  0   -5249828.462  -2775357.124   3482694.529
10 0 59827  59382.000000  0   -5696046.661  -2793739.303   2676089.433
10 0 59827  59502.000000  0   -6042495.755  -2756331.640   1822354.353
10 0 59827  59622.000000  0   -6282165.342  -2665597.055    936525.193
10 0 59827  59742.000000  0   -6409984.508  -2525045.142     34204.967
10 0 59827  59862.000000  0   -6422930.682  -2339134.917   -868718.714
10 0 59827  59982.000000  0   -6320097.325  -2113157.778  -1756363.590
10 0 59827  60102.000000  0   -6102716.924  -1853103.993  -2613140.601
10 0 59827  60222.000000  0   -5774141.653  -1565516.575  -3424033.294
10 0 59827  60342.000000  0   -5339782.378  -1257336.270  -4174863.829
10 0 59827  60462.000000  0   -4807008.226   -935741.818  -4852540.124
10 0 59827  60582.000000  0   -4185009.695   -607988.846  -5445280.147
10 0 59827  60702.000000  0   -3484628.398   -281251.794  -5942808.836
10 0 59827  60822.000000  0   -2718159.255     37527.866  -6336525.170
10 0 59827  60942.000000  0   -1899129.921    341783.641  -6619638.785
10 0 59827  61062.000000  0   -1042060.568    625453.362  -6787275.926
10 0 59827  61182.000000  0    -162209.363    883095.336  -6836553.809
10 0 59827  61302.000000  0     724692.678   1109989.367  -6766623.680
10 0 59827  61422.000000  0    1602715.114   1302220.033  -6578686.067
10 0 59827  61542.000000  0    2456008.843   1456743.644  -6275973.525
10 0 59827  61662.000000  0    3269087.274   1571436.179  -5863700.626
10 0 59827  61782.000000  0    4027103.636   1645121.275  -5348982.109
10 0 59827  61902.000000  0    4716121.440   1677578.781  -4740722.088
10 0 59827  62022.000000  0    5323375.329   1669533.639  -4049471.468
10 0 59827  62142.000000  0    5837514.484   1622624.240  -3287254.289
10 0 59827  62262.000000  0    6248824.237   1539350.858  -2467366.744
10 0 59827  62382.000000  0    6549422.106   1423005.463  -1604149.904
10 0 59827  62502.000000  0    6733420.897   1277583.704   -712738.467
10 0 59827  62622.000000  0    6797054.199   1107680.337    191208.543
10 0 59827  62742.000000  0    6738759.215    918371.796   1091789.388
10 0 59827  62862.000000  0    6559218.046    715088.444   1973146.355
10 0 59827  62982.000000  0    6261353.336    503478.449   2819755.299
10 0 59827  63102.000000  0    5850277.027    289268.088   3616707.000
10 0 59827  63222.000000  0    5333195.884     78121.644   4349976.465
10 0 59827  63342.000000  0    4719275.971   -124493.920   5006671.981
10 0 59827  63462.000000  0    4019470.815   -313438.921   5575263.563
10 0 59827  63582.000000  0    3246314.662   -484021.012   6045782.289
10 0 59827  63702.000000  0    2413689.961   -632101.606   6409989.893
10 0 59827  63822.000000  0    1536572.638   -754188.630   6661517.257
10 0 59827  63942.000000  0     630758.716   -847513.253   6795971.164
10 0 59827  64062.000000  0    -287422.864   -910089.010   6811005.554
10 0 59827  64182.000000  0   -1201404.260   -940752.586   6706358.724
10 0 59827  64302.000000  0   -2094676.403   -939185.469   6483856.988
10 0 59827  64422.000000  0   -2951085.426   -905915.708   6147384.478
10 0 59827  64542.000000  0   -3755124.696   -842300.132   5702821.178
10 0 59827  64662.000000  0   -4492219.501   -750487.983   5157947.107
10 0 59827  64782.000000  0   -5148997.842   -633366.234   4522312.093
10 0 59827  64902.000000  0   -5713541.012   -494487.042   3807072.519
10 0 59827  65022.000000  0   -6175608.454   -337979.017   3024797.931
10 0 59827  65142.000000  0   -6526833.154   -168444.088   2189251.814
10 0 59827  65262.000000  0   -6760883.966      9158.261   1315147.256
10 0 59827  65382.000000  0   -6873587.861    189635.498    417881.785
10 0 59827  65502.000000  0   -6863009.092    367692.708   -486742.049
10 0 59827  65622.000000  0   -6729482.772    538066.516  -1382804.375
10 0 59827  65742.000000  0   -6475601.864    695658.005  -2254556.271
10 0 59827  65862.000000  0   -6106161.523    835661.567  -3086702.718
10 0 59827  65982.000000  0   -5628058.821    953686.971  -3864677.901
10 0 59827  66102.000000  0   -5050149.979   1045870.826  -4574900.943
99
